{
  "type": "FeatureCollection",
  "features": [
    {
      "type": "Feature",
      "properties": {
        "norad_id": 33791,
        "name": "COSMOS 2251 DEB",
        "group": "cosmos-2251-debris",
        "lat": -67.50683534516882,
        "lon": -95.94827441184184,
        "alt_km": 734.1694264715761,
        "timestamp": "2025-12-10T23:33:13.210719+00:00",
        "meta_object_name": "COSMOS 2251 DEB",
        "meta_object_id": "1993-036AG",
        "meta_epoch": "2025-12-10T14:47:20.821344",
        "meta_mean_motion": 14.43105665,
        "meta_eccentricity": 0.00305427,
        "meta_inclination": 74.1752,
        "meta_ra_of_asc_node": 41.4915,
        "meta_arg_of_pericenter": 239.1002,
        "meta_mean_anomaly": 278.1343,
        "meta_ephemeris_type": 0,
        "meta_classification_type": "U",
        "meta_norad_cat_id": 33791,
        "meta_element_set_no": 999,
        "meta_rev_at_epoch": 88021,
        "meta_bstar": 0.001147795,
        "meta_mean_motion_dot": 3.85e-05,
        "meta_mean_motion_ddot": 0,
        "tle_line1": "1 33791U 93036AG  25344.61621321  .00003850  00000+0  11478-2 0  9992",
        "tle_line2": "2 33791  74.1752  41.4915 0030542 239.1002 278.1343 14.43105665880218"
      },
      "geometry": {
        "type": "Point",
        "coordinates": [
          -95.94827441184184,
          -67.50683534516882
        ]
      }
    },
    {
      "type": "Feature",
      "properties": {
        "norad_id": 33792,
        "name": "COSMOS 2251 DEB",
        "group": "cosmos-2251-debris",
        "lat": -19.6756670616853,
        "lon": 174.07964373437167,
        "alt_km": 1356.460229823314,
        "timestamp": "2025-12-10T23:33:13.210729+00:00",
        "meta_object_name": "COSMOS 2251 DEB",
        "meta_object_id": "1993-036AH",
        "meta_epoch": "2025-12-10T10:48:32.423328",
        "meta_mean_motion": 13.45817113,
        "meta_eccentricity": 0.04269753,
        "meta_inclination": 73.9009,
        "meta_ra_of_asc_node": 349.0002,
        "meta_arg_of_pericenter": 54.0784,
        "meta_mean_anomaly": 91.7571,
        "meta_ephemeris_type": 0,
        "meta_classification_type": "U",
        "meta_norad_cat_id": 33792,
        "meta_element_set_no": 999,
        "meta_rev_at_epoch": 82411,
        "meta_bstar": 0.0010381923,
        "meta_mean_motion_dot": 1.056e-05,
        "meta_mean_motion_ddot": 0,
        "tle_line1": "1 33792U 93036AH  25344.45037527  .00001056  00000+0  10382-2 0  9993",
        "tle_line2": "2 33792  73.9009 349.0002 0426975  54.0784  91.7571 13.45817113824113"
      },
      "geometry": {
        "type": "Point",
        "coordinates": [
          174.07964373437167,
          -19.6756670616853
        ]
      }
    },
    {
      "type": "Feature",
      "properties": {
        "norad_id": 33793,
        "name": "COSMOS 2251 DEB",
        "group": "cosmos-2251-debris",
        "lat": -51.1900284463104,
        "lon": -5.957874996130921,
        "alt_km": 785.7990639729824,
        "timestamp": "2025-12-10T23:33:13.210738+00:00",
        "meta_object_name": "COSMOS 2251 DEB",
        "meta_object_id": "1993-036AJ",
        "meta_epoch": "2025-12-09T21:56:10.112352",
        "meta_mean_motion": 14.27706846,
        "meta_eccentricity": 0.00784218,
        "meta_inclination": 73.9806,
        "meta_ra_of_asc_node": 155.0532,
        "meta_arg_of_pericenter": 305.7116,
        "meta_mean_anomaly": 205.2473,
        "meta_ephemeris_type": 0,
        "meta_classification_type": "U",
        "meta_norad_cat_id": 33793,
        "meta_element_set_no": 999,
        "meta_rev_at_epoch": 87166,
        "meta_bstar": 0.00094289688,
        "meta_mean_motion_dot": 2.377e-05,
        "meta_mean_motion_ddot": 0,
        "tle_line1": "1 33793U 93036AJ  25343.91400593  .00002377  00000+0  94290-3 0  9999",
        "tle_line2": "2 33793  73.9806 155.0532 0078421 305.7116 205.2473 14.27706846871662"
      },
      "geometry": {
        "type": "Point",
        "coordinates": [
          -5.957874996130921,
          -51.1900284463104
        ]
      }
    },
    {
      "type": "Feature",
      "properties": {
        "norad_id": 33795,
        "name": "COSMOS 2251 DEB",
        "group": "cosmos-2251-debris",
        "lat": 46.60564437300005,
        "lon": 97.97133916921649,
        "alt_km": 555.1673321964108,
        "timestamp": "2025-12-10T23:33:13.210748+00:00",
        "meta_object_name": "COSMOS 2251 DEB",
        "meta_object_id": "1993-036AL",
        "meta_epoch": "2025-12-10T15:39:45.255168",
        "meta_mean_motion": 15.05389642,
        "meta_eccentricity": 0.00317373,
        "meta_inclination": 74.0322,
        "meta_ra_of_asc_node": 81.0162,
        "meta_arg_of_pericenter": 165.2203,
        "meta_mean_anomaly": 263.154,
        "meta_ephemeris_type": 0,
        "meta_classification_type": "U",
        "meta_norad_cat_id": 33795,
        "meta_element_set_no": 999,
        "meta_rev_at_epoch": 89990,
        "meta_bstar": 0.0021147118,
        "meta_mean_motion_dot": 0.00030765,
        "meta_mean_motion_ddot": 0,
        "tle_line1": "1 33795U 93036AL  25344.65260712  .00030765  00000+0  21147-2 0  9992",
        "tle_line2": "2 33795  74.0322  81.0162 0031737 165.2203 263.1540 15.05389642899904"
      },
      "geometry": {
        "type": "Point",
        "coordinates": [
          97.97133916921649,
          46.60564437300005
        ]
      }
    },
    {
      "type": "Feature",
      "properties": {
        "norad_id": 33797,
        "name": "COSMOS 2251 DEB",
        "group": "cosmos-2251-debris",
        "lat": 8.792075241049107,
        "lon": -144.2344038941258,
        "alt_km": 670.5047952405657,
        "timestamp": "2025-12-10T23:33:13.210760+00:00",
        "meta_object_name": "COSMOS 2251 DEB",
        "meta_object_id": "1993-036AN",
        "meta_epoch": "2025-12-10T15:15:12.315744",
        "meta_mean_motion": 14.57835191,
        "meta_eccentricity": 0.00607796,
        "meta_inclination": 74.0478,
        "meta_ra_of_asc_node": 38.9581,
        "meta_arg_of_pericenter": 127.4955,
        "meta_mean_anomaly": 28.4464,
        "meta_ephemeris_type": 0,
        "meta_classification_type": "U",
        "meta_norad_cat_id": 33797,
        "meta_element_set_no": 999,
        "meta_rev_at_epoch": 88954,
        "meta_bstar": 0.00065345994,
        "meta_mean_motion_dot": 3.04e-05,
        "meta_mean_motion_ddot": 0,
        "tle_line1": "1 33797U 93036AN  25344.63555921  .00003040  00000+0  65346-3 0  9997",
        "tle_line2": "2 33797  74.0478  38.9581 0060779 127.4955  28.4464 14.57835191889543"
      },
      "geometry": {
        "type": "Point",
        "coordinates": [
          -144.2344038941258,
          8.792075241049107
        ]
      }
    },
    {
      "type": "Feature",
      "properties": {
        "norad_id": 33798,
        "name": "COSMOS 2251 DEB",
        "group": "cosmos-2251-debris",
        "lat": 45.148974054169244,
        "lon": -57.551720565334236,
        "alt_km": 779.6961086711281,
        "timestamp": "2025-12-10T23:33:13.210770+00:00",
        "meta_object_name": "COSMOS 2251 DEB",
        "meta_object_id": "1993-036AP",
        "meta_epoch": "2025-12-10T11:23:32.584416",
        "meta_mean_motion": 14.44609981,
        "meta_eccentricity": 0.00924831,
        "meta_inclination": 74.0278,
        "meta_ra_of_asc_node": 140.1241,
        "meta_arg_of_pericenter": 261.9752,
        "meta_mean_anomaly": 117.0911,
        "meta_ephemeris_type": 0,
        "meta_classification_type": "U",
        "meta_norad_cat_id": 33798,
        "meta_element_set_no": 999,
        "meta_rev_at_epoch": 88561,
        "meta_bstar": 0.00027044387,
        "meta_mean_motion_dot": 9.57e-06,
        "meta_mean_motion_ddot": 0,
        "tle_line1": "1 33798U 93036AP  25344.47468269  .00000957  00000+0  27044-3 0  9995",
        "tle_line2": "2 33798  74.0278 140.1241 0092483 261.9752 117.0911 14.44609981885615"
      },
      "geometry": {
        "type": "Point",
        "coordinates": [
          -57.551720565334236,
          45.148974054169244
        ]
      }
    },
    {
      "type": "Feature",
      "properties": {
        "norad_id": 33799,
        "name": "COSMOS 2251 DEB",
        "group": "cosmos-2251-debris",
        "lat": 23.0678790198253,
        "lon": -101.75438845120877,
        "alt_km": 613.4811970782512,
        "timestamp": "2025-12-10T23:33:13.210779+00:00",
        "meta_object_name": "COSMOS 2251 DEB",
        "meta_object_id": "1993-036AQ",
        "meta_epoch": "2025-12-10T10:13:24.685824",
        "meta_mean_motion": 14.79522867,
        "meta_eccentricity": 0.00236194,
        "meta_inclination": 74.032,
        "meta_ra_of_asc_node": 86.3428,
        "meta_arg_of_pericenter": 157.8211,
        "meta_mean_anomaly": 280.9118,
        "meta_ephemeris_type": 0,
        "meta_classification_type": "U",
        "meta_norad_cat_id": 33799,
        "meta_element_set_no": 999,
        "meta_rev_at_epoch": 88777,
        "meta_bstar": 0.0017797654,
        "meta_mean_motion_dot": 0.00013369,
        "meta_mean_motion_ddot": 0,
        "tle_line1": "1 33799U 93036AQ  25344.42598016  .00013369  00000+0  17798-2 0  9990",
        "tle_line2": "2 33799  74.0320  86.3428 0023619 157.8211 280.9118 14.79522867887773"
      },
      "geometry": {
        "type": "Point",
        "coordinates": [
          -101.75438845120877,
          23.0678790198253
        ]
      }
    }
  ]
}